[{"OBJECT_NAME":"STARLINK-30976","OBJECT_ID":"2023-183L","EPOCH":"2026-03-09T22:00:01.999584","MEAN_MOTION":15.26720893,"ECCENTRICITY":0.00015157,"INCLINATION":43.0012,"RA_OF_ASC_NODE":40.1681,"ARG_OF_PERICENTER":255.8426,"MEAN_ANOMALY":20.026,"EPHEMERIS_TYPE":0,"CLASSIFICATION_TYPE":"U","NORAD_CAT_ID":58447,"ELEMENT_SET_NO":999,"REV_AT_EPOCH":573,"BSTAR":0.001323171,"MEAN_MOTION_DOT":0.00035382,"MEAN_MOTION_DDOT":0},{"OBJECT_NAME":"ELECTRON KICK STAGE R\/B","OBJECT_ID":"2022-147B","EPOCH":"2026-03-09T22:28:20.187264","MEAN_MOTION":15.28920172,"ECCENTRICITY":0.00095089,"INCLINATION":97.642,"RA_OF_ASC_NODE":85.1135,"ARG_OF_PERICENTER":110.4683,"MEAN_ANOMALY":249.7578,"EPHEMERIS_TYPE":0,"CLASSIFICATION_TYPE":"U","NORAD_CAT_ID":54228,"ELEMENT_SET_NO":999,"REV_AT_EPOCH":18390,"BSTAR":0.00083201931,"MEAN_MOTION_DOT":0.00023374,"MEAN_MOTION_DDOT":0}]
